{
    "CCSDS_OMM_VERS": "3.0",
    "COMMENT": "GENERATED VIA SPACE-TRACK.ORG API",
    "CREATION_DATE": "2025-11-24T07:26:19",
    "ORIGINATOR": "18 SPCS",
    "OBJECT_NAME": "BEIDOU 3M9",
    "OBJECT_ID": "2018-062A",
    "CENTER_NAME": "EARTH",
    "REF_FRAME": "TEME",
    "TIME_SYSTEM": "UTC",
    "MEAN_ELEMENT_THEORY": "SGP4",
    "EPOCH": "2025-11-23T23:45:44.066304",
    "MEAN_MOTION": "1.86228789",
    "ECCENTRICITY": "0.00022450",
    "INCLINATION": "54.0891",
    "RA_OF_ASC_NODE": "189.2817",
    "ARG_OF_PERICENTER": "347.1888",
    "MEAN_ANOMALY": "12.9011",
    "EPHEMERIS_TYPE": "0",
    "CLASSIFICATION_TYPE": "U",
    "NORAD_CAT_ID": "43581",
    "ELEMENT_SET_NO": "999",
    "REV_AT_EPOCH": "4981",
    "BSTAR": "0.00000000000000",
    "MEAN_MOTION_DOT": "0.00000066",
    "MEAN_MOTION_DDOT": "0.0000000000000",
    "SEMIMAJOR_AXIS": "27906.409",
    "PERIOD": "773.242",
    "APOAPSIS": "21534.539",
    "PERIAPSIS": "21522.009",
    "OBJECT_TYPE": "PAYLOAD",
    "RCS_SIZE": "LARGE",
    "COUNTRY_CODE": "PRC",
    "LAUNCH_DATE": "2018-07-29",
    "SITE": "XSC",
    "DECAY_DATE": null,
    "FILE": "4896998",
    "GP_ID": "303367819",
    "TLE_LINE0": "0 BEIDOU 3M9",
    "TLE_LINE1": "1 43581U 18062A   25327.99009336  .00000066  00000-0  00000+0 0  9997",
    "TLE_LINE2": "2 43581  54.0891 189.2817 0002245 347.1888  12.9011  1.86228789 49815"
}